IRIDIUM 156             
1 43576U 18061H   26194.00155642  .00000060  00000+0  14316-4 0  9990
2 43576  86.3936  45.9308 0002075  91.5811 268.5623 14.34217488417073
IRIDIUM 164             
1 43577U 18061J   26193.70345657  .00000149  00000+0  46177-4 0  9992
2 43577  86.3939  46.0967 0002309  89.1970 270.9490 14.34217636417073
IRIDIUM 159             
1 43578U 18061K   26194.02058353  .00000019  00000+0 -29932-6 0  9992
2 43578  86.3935  45.9002 0002035  84.9102 275.2326 14.34217158417080
IRIDIUM 180             
1 43922U 19002A   26193.88054457  .00000090  00000+0  24920-4 0  9993
2 43922  86.3991 342.8564 0002243  90.9268 269.2185 14.34217781392673
IRIDIUM 176             
1 43923U 19002B   26193.98682193  .00000422  00000+0  63039-4 0  9992
2 43923  86.6108 342.7517 0002341  89.6789 270.4696 14.72247469403049
IRIDIUM 168             
1 43924U 19002C   26191.36253025  .00000045  00000+0  89730-5 0  9999
2 43924  86.3988 343.9865 0002243  90.7210 269.4243 14.34217872392298
IRIDIUM 173             
1 43925U 19002D   26193.93128356 -.00000099  00000+0 -42376-4 0  9998
2 43925  86.3986 342.8012 0002031  91.5170 268.6259 14.34216730392647
IRIDIUM 169             
1 43926U 19002E   26193.98784338  .00000033  00000+0  43362-5 0  9995
2 43926  86.4220  14.4030 0001820 101.7059 258.4343 14.38613062393934
IRIDIUM 172             
1 43927U 19002F   26193.92494191  .00000065  00000+0  16247-4 0  9991
2 43927  86.3985 342.8115 0002163  90.1447 269.9997 14.34217689392658
IRIDIUM 175             
1 43928U 19002G   26194.19948657  .00000179  00000+0  46765-4 0  9997
2 43928  86.4512 279.6484 0005228 119.2126 240.9599 14.43626590402737
IRIDIUM 171             
1 43929U 19002H   26193.90591378  .00000048  00000+0  10199-4 0  9997
2 43929  86.3995 343.1284 0002204  95.0881 265.0567 14.34217573392645
IRIDIUM 170             
1 43930U 19002J   26193.92502486  .00000426  00000+0  63714-4 0  9994
2 43930  86.6108 342.7797 0002291  86.0820 274.0659 14.72247984403049
IRIDIUM 167             
1 43931U 19002K   26193.89957109  .00000055  00000+0  12726-4 0  9992
2 43931  86.3989 342.8447 0002245  98.9006 261.2444 14.34217708392646
IRIDIUM 181             
1 56726U 23068S   26194.10497455  .00000185  00000+0  49033-4 0  9998
2 56726  86.4476  45.9523 0002409  83.8620 276.2855 14.43311568166175
IRIDIUM 177             
1 56727U 23068T   26193.87825600  .00000579  00000+0  72999-4 0  9993
2 56727  86.1984 316.5936 0002141  93.9999 266.1467 14.80028266170168
IRIDIUM 174             
1 56728U 23068U   26193.91259493  .00000437  00000+0  65398-4 0  9998
2 56728  86.6116 342.9348 0002017  85.8663 274.2785 14.72256530169801
IRIDIUM 178             
1 56729U 23068V   26193.93485580  .00000200  00000+0  22962-4 0  9997
2 56729  86.6533  14.5979 0002316  90.4858 269.6629 14.80025518170173
IRIDIUM 179             
1 56730U 23068W   26193.59145639  .00000466  00000+0  58205-4 0  9992
2 56730  86.6765  23.7965 0002293  92.3365 267.8119 14.80034097170128
